TRANSPORTER-10 OBJECT AG
1 59128U 24043AG  26068.92552531  .00009498  00000+0  32170-3 0  9997
2 59128  97.5471 205.7101 0009300 226.5958 133.4509 15.30759727111920
STARLINK-36546          
1 67459U 26008Q   26068.46611758  .00024039  00000+0  87950-3 0  9996
2 67459  43.0026 206.8678 0003774 299.9737  60.0740 15.27603549  9538
